IRIDIUM 136             
1 42962U 17061H   23188.28345590  .00000340  00000+0  11445-3 0  9990
2 42962  86.3975 114.9205 0002329  77.2260 282.9196 14.34217697300627
